*******************************************************************************
Ephemeris / WWW_USER Fri Mar  7 10:33:34 2025 Pasadena, USA      / Horizons    
*******************************************************************************
Target body name: (2017 SN16)                     {source: JPL#20}
Center body name: Earth (399)                     {source: DE441}
Center-site name: Mauna Kea
*******************************************************************************
Start time      : A.D. 2018-Dec-31 04:03:00.0000 UT      
Stop  time      : A.D. 2018-Dec-31 16:46:00.0000 UT      
Step-size       : 1 minutes
*******************************************************************************
Target pole/equ : undefined
Target radii    : undefined                                                    
Center geodetic : 204.5278, 19.8260847, 4.21024   {E-lon(deg),Lat(deg),Alt(km)}
Center cylindric: 204.5278, 6006.35451, 2151.0229 {E-lon(deg),Dxy(km),Dz(km)}
Center pole/equ : ITRF93                          {East-longitude positive}
Center radii    : 6378.137, 6378.137, 6356.752 km {Equator_a, b, pole_c}       
Target primary  : Sun
Vis. interferer : MOON (R_eq= 1737.400) km        {source: DE441}
Rel. light bend : Sun                             {source: DE441}
Rel. lght bnd GM: 1.3271E+11 km^3/s^2                                          
Small-body perts: Yes                             {source: SB441-N16}
Atmos refraction: NO (AIRLESS)
RA format       : HMS
Time format     : CAL 
Calendar mode   : Mixed Julian/Gregorian
RTS-only print  : NO       
EOP file        : eop.250306.p250602                                           
EOP coverage    : DATA-BASED 1962-JAN-20 TO 2025-MAR-06. PREDICTS-> 2025-JUN-01
Units conversion: 1 au= 149597870.700 km, c= 299792.458 km/s, 1 day= 86400.0 s 
Table cut-offs 1: Elevation (-90.0deg=NO ),Airmass (>38.000=NO), Daylight (YES)
Table cut-offs 2: Solar elongation (  0.0,180.0=NO ),Local Hour Angle( 0.0=NO )
Table cut-offs 3: RA/DEC angular rate (     0.0=NO )                           
*******************************************************************************
Initial IAU76/J2000 heliocentric ecliptic osculating elements (au, days, deg.):
  EPOCH=  2458305.5 ! 2018-Jul-06.00 (TDB)         Residual RMS= .23751        
   EC= .1454884975659386   QR= .8682464985612274   TP= 2458145.5722438502      
   OM= 2.759719470837934   W=  137.1017088998531   IN= 13.38264682844635       
  Equivalent ICRF heliocentric cartesian coordinates (au, au/d):
   X= 5.756755401261899E-01  Y=-7.953424559592890E-01  Z=-6.031561894536019E-01
  VX= 1.332076113263395E-02 VY= 5.454663564585547E-03 VZ= 3.896229736425836E-03
Asteroid physical parameters (km, seconds, rotational period in hours):        
   GM= n.a.                RAD= n.a.               ROTPER= n.a.                
   H= 23.34                G= .150                 B-V= n.a.                   
                           ALBEDO= n.a.            STYP= n.a.                  
*******************************************************************************
 Date__(UT)__HR:MN     R.A._________(ICRF)_________DEC
******************************************************
$$SOE
 2018-Dec-31 08:09     19 52 53.278423 +38 30 06.70701
 2018-Dec-31 08:10     19 52 53.216163 +38 30 06.59050
 2018-Dec-31 08:11     19 52 53.153945 +38 30 06.47422
 2018-Dec-31 08:12     19 52 53.091769 +38 30 06.35814
 2018-Dec-31 08:13     19 52 53.029635 +38 30 06.24229
 2018-Dec-31 08:14     19 52 52.967542 +38 30 06.12665
 2018-Dec-31 08:15     19 52 52.905490 +38 30 06.01123
 2018-Dec-31 08:16     19 52 52.843479 +38 30 05.89603
 2018-Dec-31 08:17     19 52 52.781510 +38 30 05.78106
 2018-Dec-31 08:18     19 52 52.719581 +38 30 05.66630
 2018-Dec-31 08:19     19 52 52.657693 +38 30 05.55177
 2018-Dec-31 08:20     19 52 52.595845 +38 30 05.43747
 2018-Dec-31 08:21     19 52 52.534038 +38 30 05.32340
 2018-Dec-31 08:22     19 52 52.472271 +38 30 05.20955
 2018-Dec-31 08:23     19 52 52.410544 +38 30 05.09594
 2018-Dec-31 08:24     19 52 52.348857 +38 30 04.98255
 2018-Dec-31 08:25     19 52 52.287210 +38 30 04.86940
 2018-Dec-31 08:26     19 52 52.225602 +38 30 04.75649
 2018-Dec-31 08:27     19 52 52.164034 +38 30 04.64380
 2018-Dec-31 08:28     19 52 52.102505 +38 30 04.53136
 2018-Dec-31 08:29     19 52 52.041015 +38 30 04.41915
 2018-Dec-31 08:30     19 52 51.979564 +38 30 04.30718
 2018-Dec-31 08:31     19 52 51.918152 +38 30 04.19546
 2018-Dec-31 08:32     19 52 51.856778 +38 30 04.08397
 2018-Dec-31 08:33     19 52 51.795443 +38 30 03.97273
 2018-Dec-31 08:34     19 52 51.734146 +38 30 03.86173
 2018-Dec-31 08:35     19 52 51.672887 +38 30 03.75098
 2018-Dec-31 08:36     19 52 51.611666 +38 30 03.64047
 2018-Dec-31 08:37     19 52 51.550483 +38 30 03.53021
 2018-Dec-31 08:38     19 52 51.489337 +38 30 03.42021
 2018-Dec-31 08:39     19 52 51.428229 +38 30 03.31045
 2018-Dec-31 08:40     19 52 51.367158 +38 30 03.20094
 2018-Dec-31 08:41     19 52 51.306125 +38 30 03.09169
 2018-Dec-31 08:42     19 52 51.245128 +38 30 02.98269
 2018-Dec-31 08:43     19 52 51.184168 +38 30 02.87395
 2018-Dec-31 08:44     19 52 51.123244 +38 30 02.76546
 2018-Dec-31 08:45     19 52 51.062357 +38 30 02.65723
 2018-Dec-31 08:46     19 52 51.001506 +38 30 02.54926
 2018-Dec-31 08:47     19 52 50.940691 +38 30 02.44155
 2018-Dec-31 08:48     19 52 50.879912 +38 30 02.33411
 2018-Dec-31 08:49     19 52 50.819169 +38 30 02.22692
 2018-Dec-31 08:50     19 52 50.758461 +38 30 02.12000
 2018-Dec-31 08:51     19 52 50.697788 +38 30 02.01335
 2018-Dec-31 08:52     19 52 50.637151 +38 30 01.90696
 2018-Dec-31 08:53     19 52 50.576549 +38 30 01.80083
 2018-Dec-31 08:54     19 52 50.515981 +38 30 01.69498
 2018-Dec-31 08:55     19 52 50.455448 +38 30 01.58940
 2018-Dec-31 08:56     19 52 50.394949 +38 30 01.48408
 2018-Dec-31 08:57     19 52 50.334485 +38 30 01.37904
 2018-Dec-31 08:58     19 52 50.274055 +38 30 01.27427
 2018-Dec-31 08:59     19 52 50.213658 +38 30 01.16978
 2018-Dec-31 09:00     19 52 50.153296 +38 30 01.06556
 2018-Dec-31 09:01     19 52 50.092966 +38 30 00.96162
 2018-Dec-31 09:02     19 52 50.032671 +38 30 00.85795
 2018-Dec-31 09:03     19 52 49.972408 +38 30 00.75457
 2018-Dec-31 09:04     19 52 49.912178 +38 30 00.65146
 2018-Dec-31 09:05     19 52 49.851981 +38 30 00.54864
 2018-Dec-31 09:06     19 52 49.791816 +38 30 00.44609
 2018-Dec-31 09:07     19 52 49.731684 +38 30 00.34383
 2018-Dec-31 09:08     19 52 49.671584 +38 30 00.24186
 2018-Dec-31 09:09     19 52 49.611517 +38 30 00.14017
 2018-Dec-31 09:10     19 52 49.551480 +38 30 00.03876
 2018-Dec-31 09:11     19 52 49.491476 +38 29 59.93764
 2018-Dec-31 09:12     19 52 49.431503 +38 29 59.83682
 2018-Dec-31 09:13     19 52 49.371561 +38 29 59.73628
 2018-Dec-31 09:14     19 52 49.311650 +38 29 59.63603
 2018-Dec-31 09:15     19 52 49.251770 +38 29 59.53607
 2018-Dec-31 09:16     19 52 49.191921 +38 29 59.43640
 2018-Dec-31 09:17     19 52 49.132102 +38 29 59.33703
 2018-Dec-31 09:18     19 52 49.072313 +38 29 59.23795
 2018-Dec-31 09:19     19 52 49.012555 +38 29 59.13917
 2018-Dec-31 09:20     19 52 48.952826 +38 29 59.04069
 2018-Dec-31 09:21     19 52 48.893127 +38 29 58.94250
 2018-Dec-31 09:22     19 52 48.833458 +38 29 58.84461
 2018-Dec-31 09:23     19 52 48.773817 +38 29 58.74702
 2018-Dec-31 09:24     19 52 48.714206 +38 29 58.64973
 2018-Dec-31 09:25     19 52 48.654624 +38 29 58.55274
 2018-Dec-31 09:26     19 52 48.595070 +38 29 58.45606
 2018-Dec-31 09:27     19 52 48.535545 +38 29 58.35968
 2018-Dec-31 09:28     19 52 48.476048 +38 29 58.26360
 2018-Dec-31 09:29     19 52 48.416579 +38 29 58.16782
 2018-Dec-31 09:30     19 52 48.357137 +38 29 58.07236
 2018-Dec-31 09:31     19 52 48.297724 +38 29 57.97720
 2018-Dec-31 09:32     19 52 48.238338 +38 29 57.88235
 2018-Dec-31 09:33     19 52 48.178979 +38 29 57.78780
 2018-Dec-31 09:34     19 52 48.119647 +38 29 57.69357
 2018-Dec-31 09:35     19 52 48.060343 +38 29 57.59965
 2018-Dec-31 09:36     19 52 48.001064 +38 29 57.50604
 2018-Dec-31 09:37     19 52 47.941812 +38 29 57.41274
 2018-Dec-31 09:38     19 52 47.882587 +38 29 57.31976
 2018-Dec-31 09:39     19 52 47.823387 +38 29 57.22709
 2018-Dec-31 09:40     19 52 47.764213 +38 29 57.13473
 2018-Dec-31 09:41     19 52 47.705065 +38 29 57.04269
 2018-Dec-31 09:42     19 52 47.645942 +38 29 56.95097
 2018-Dec-31 09:43     19 52 47.586844 +38 29 56.85957
 2018-Dec-31 09:44     19 52 47.527771 +38 29 56.76848
 2018-Dec-31 09:45     19 52 47.468723 +38 29 56.67771
 2018-Dec-31 09:46     19 52 47.409700 +38 29 56.58727
 2018-Dec-31 09:47     19 52 47.350700 +38 29 56.49714
 2018-Dec-31 09:48     19 52 47.291725 +38 29 56.40734
 2018-Dec-31 09:49     19 52 47.232774 +38 29 56.31786
 2018-Dec-31 09:50     19 52 47.173846 +38 29 56.22870
 2018-Dec-31 09:51     19 52 47.114942 +38 29 56.13987
 2018-Dec-31 09:52     19 52 47.056061 +38 29 56.05136
 2018-Dec-31 09:53     19 52 46.997203 +38 29 55.96318
 2018-Dec-31 09:54     19 52 46.938368 +38 29 55.87532
 2018-Dec-31 09:55     19 52 46.879556 +38 29 55.78779
 2018-Dec-31 09:56     19 52 46.820766 +38 29 55.70059
 2018-Dec-31 09:57     19 52 46.761998 +38 29 55.61372
 2018-Dec-31 09:58     19 52 46.703252 +38 29 55.52718
 2018-Dec-31 09:59     19 52 46.644528 +38 29 55.44097
 2018-Dec-31 10:00     19 52 46.585825 +38 29 55.35509
 2018-Dec-31 10:01     19 52 46.527144 +38 29 55.26954
 2018-Dec-31 10:02     19 52 46.468483 +38 29 55.18432
 2018-Dec-31 10:03     19 52 46.409844 +38 29 55.09944
 2018-Dec-31 10:04     19 52 46.351225 +38 29 55.01489
 2018-Dec-31 10:05     19 52 46.292627 +38 29 54.93068
 2018-Dec-31 10:06     19 52 46.234048 +38 29 54.84680
 2018-Dec-31 10:07     19 52 46.175490 +38 29 54.76326
 2018-Dec-31 10:08     19 52 46.116952 +38 29 54.68005
 2018-Dec-31 10:09     19 52 46.058433 +38 29 54.59718
 2018-Dec-31 10:10     19 52 45.999933 +38 29 54.51465
 2018-Dec-31 10:11     19 52 45.941452 +38 29 54.43246
